start=new Date('2022-05-29T00:00:00.000Z').valueOf();
sats=[{"ECCENTRICITY":"0.00022090","MEAN_MOTION_DDOT":"0.0000000000000","OBJECT_NAME":"STARLINK-1760","TLE_LINE1":"1 46341U 20062S   22148.78897592  .00001015  00000-0  87051-4 0  9992","RA_OF_ASC_NODE":"75.7260","MEAN_MOTION":"15.06403641","LAUNCH_DATE":"2020-09-03","PERIOD":"95.592","PERIAPSIS":"545.673","OBJECT_TYPE":"PAYLOAD","SITE":"AFETR","COUNTRY_CODE":"US","TLE_LINE2":"2 46341  53.0572  75.7260 0002209  55.5843 304.5355 15.06403641 96462","APOAPSIS":"548.732","EPHEMERIS_TYPE":"0","CLASSIFICATION_TYPE":"U","NORAD_CAT_ID":"46341","CENTER_NAME":"EARTH","BSTAR":"0.00008705100000","MEAN_ELEMENT_THEORY":"SGP4","ELEMENT_SET_NO":"999","EPOCH":"2022-05-28T18:56:07.519488","SEMIMAJOR_AXIS":"6925.337","INCLINATION":"53.0572","TIME_SYSTEM":"UTC","OBJECT_ID":"2020-062S","MEAN_ANOMALY":"304.5355","DECAY_DATE":null,"REV_AT_EPOCH":"9646","MEAN_MOTION_DOT":"0.00001015","RCS_SIZE":"LARGE","REF_FRAME":"TEME","FILE":"3469840","ARG_OF_PERICENTER":"55.5843","GP_ID":"204801550"},{"PERIOD":"95.593","LAUNCH_DATE":"2020-09-03","MEAN_MOTION":"15.06392021","MEAN_MOTION_DDOT":"0.0000000000000","OBJECT_NAME":"STARLINK-1762","ECCENTRICITY":"0.00018020","RA_OF_ASC_NODE":"96.6923","TLE_LINE1":"1 46342U 20062T   22148.56967196  .00000537  00000-0  54985-4 0  9995","ELEMENT_SET_NO":"999","EPOCH":"2022-05-28T13:40:19.657344","MEAN_ELEMENT_THEORY":"SGP4","BSTAR":"0.00005498500000","NORAD_CAT_ID":"46342","CLASSIFICATION_TYPE":"U","CENTER_NAME":"EARTH","EPHEMERIS_TYPE":"0","APOAPSIS":"548.486","COUNTRY_CODE":"US","TLE_LINE2":"2 46342  53.0564  96.6923 0001802  50.7800 309.3349 15.06392021 96140","SITE":"AFETR","OBJECT_TYPE":"PAYLOAD","PERIAPSIS":"545.990","MEAN_ANOMALY":"309.3349","INCLINATION":"53.0564","TIME_SYSTEM":"UTC","OBJECT_ID":"2020-062T","SEMIMAJOR_AXIS":"6925.373","GP_ID":"204802802","ARG_OF_PERICENTER":"50.7800","FILE":"3469840","RCS_SIZE":"LARGE","REF_FRAME":"TEME","MEAN_MOTION_DOT":"0.00000537","REV_AT_EPOCH":"9614","DECAY_DATE":null},{"MEAN_ANOMALY":"303.3887","INCLINATION":"53.0571","TIME_SYSTEM":"UTC","OBJECT_ID":"2020-062U","SEMIMAJOR_AXIS":"6925.323","GP_ID":"204734358","ARG_OF_PERICENTER":"56.7274","FILE":"3468783","RCS_SIZE":"LARGE","REF_FRAME":"TEME","REV_AT_EPOCH":"9659","MEAN_MOTION_DOT":"0.00000520","DECAY_DATE":null,"PERIOD":"95.592","LAUNCH_DATE":"2020-09-03","MEAN_MOTION":"15.06408234","MEAN_MOTION_DDOT":"0.0000000000000","OBJECT_NAME":"STARLINK-1764","ECCENTRICITY":"0.00018050","RA_OF_ASC_NODE":"77.0448","TLE_LINE1":"1 46343U 20062U   22148.49778970  .00000520  00000-0  53786-4 0  9998","EPOCH":"2022-05-28T11:56:49.030080","ELEMENT_SET_NO":"999","MEAN_ELEMENT_THEORY":"SGP4","BSTAR":"0.00005378600000","NORAD_CAT_ID":"46343","CLASSIFICATION_TYPE":"U","CENTER_NAME":"EARTH","EPHEMERIS_TYPE":"0","APOAPSIS":"548.438","COUNTRY_CODE":"US","TLE_LINE2":"2 46343  53.0571  77.0448 0001805  56.7274 303.3887 15.06408234 96592","SITE":"AFETR","OBJECT_TYPE":"PAYLOAD","PERIAPSIS":"545.938"},{"NORAD_CAT_ID":"46344","CLASSIFICATION_TYPE":"U","CENTER_NAME":"EARTH","ELEMENT_SET_NO":"999","EPOCH":"2022-05-28T20:21:02.514528","MEAN_ELEMENT_THEORY":"SGP4","BSTAR":"0.00024462000000","SITE":"AFETR","PERIAPSIS":"545.827","OBJECT_TYPE":"PAYLOAD","APOAPSIS":"548.550","EPHEMERIS_TYPE":"0","TLE_LINE2":"2 46344  53.0571  75.4664 0001966  40.9941 319.1195 15.06408228 96465","COUNTRY_CODE":"US","LAUNCH_DATE":"2020-09-03","PERIOD":"95.592","MEAN_MOTION_DDOT":"0.0000000000000","ECCENTRICITY":"0.00019660","OBJECT_NAME":"STARLINK-1765","TLE_LINE1":"1 46344U 20062V   22148.84794577  .00003365  00000-0  24462-3 0  9997","RA_OF_ASC_NODE":"75.4664","MEAN_MOTION":"15.06408228","ARG_OF_PERICENTER":"40.9941","FILE":"3469840","GP_ID":"204801300","MEAN_MOTION_DOT":"0.00003365","REV_AT_EPOCH":"9646","DECAY_DATE":null,"REF_FRAME":"TEME","RCS_SIZE":"LARGE","MEAN_ANOMALY":"319.1195","SEMIMAJOR_AXIS":"6925.323","TIME_SYSTEM":"UTC","INCLINATION":"53.0571","OBJECT_ID":"2020-062V"},{"LAUNCH_DATE":"2020-09-03","PERIOD":"95.389","RA_OF_ASC_NODE":"98.6972","TLE_LINE1":"1 46345U 20062W   22148.11718965  .00475801  00000-0  27649-1 0  9991","MEAN_MOTION_DDOT":"0.0000000000000","ECCENTRICITY":"0.00116170","OBJECT_NAME":"STARLINK-1767","MEAN_MOTION":"15.09600409","CENTER_NAME":"EARTH","CLASSIFICATION_TYPE":"U","NORAD_CAT_ID":"46345","MEAN_ELEMENT_THEORY":"SGP4","BSTAR":"0.02764900000000","ELEMENT_SET_NO":"999","EPOCH":"2022-05-28T02:48:45.185760","OBJECT_TYPE":"PAYLOAD","PERIAPSIS":"529.388","SITE":"AFETR","COUNTRY_CODE":"US","TLE_LINE2":"2 46345  53.0542  98.6972 0011617 327.4834  32.5440 15.09600409 96075","EPHEMERIS_TYPE":"0","APOAPSIS":"545.456","MEAN_ANOMALY":"32.5440","SEMIMAJOR_AXIS":"6915.557","OBJECT_ID":"2020-062W","TIME_SYSTEM":"UTC","INCLINATION":"53.0542","FILE":"3469283","ARG_OF_PERICENTER":"327.4834","GP_ID":"204764798","DECAY_DATE":null,"REV_AT_EPOCH":"9607","MEAN_MOTION_DOT":"0.00475801","RCS_SIZE":"LARGE","REF_FRAME":"TEME"},{"RCS_SIZE":"LARGE","REF_FRAME":"TEME","DECAY_DATE":null,"MEAN_MOTION_DOT":"0.00012166","REV_AT_EPOCH":"9833","GP_ID":"204802302","FILE":"3469840","ARG_OF_PERICENTER":"17.3484","OBJECT_ID":"2020-062X","INCLINATION":"53.0532","TIME_SYSTEM":"UTC","SEMIMAJOR_AXIS":"6841.194","MEAN_ANOMALY":"342.7643","COUNTRY_CODE":"US","TLE_LINE2":"2 46346  53.0532 303.0163 0003714  17.3484 342.7643 15.34281139 98330","EPHEMERIS_TYPE":"0","APOAPSIS":"465.599","OBJECT_TYPE":"PAYLOAD","PERIAPSIS":"460.518","SITE":"AFETR","MEAN_ELEMENT_THEORY":"SGP4","BSTAR":"0.00037196000000","EPOCH":"2022-05-28T19:15:58.653216","ELEMENT_SET_NO":"999","CENTER_NAME":"EARTH","CLASSIFICATION_TYPE":"U","NORAD_CAT_ID":"46346","MEAN_MOTION":"15.34281139","RA_OF_ASC_NODE":"303.0163","TLE_LINE1":"1 46346U 20062X   22148.80276219  .00012166  00000-0  37196-3 0  9990","OBJECT_NAME":"STARLINK-1546","MEAN_MOTION_DDOT":"0.0000000000000","ECCENTRICITY":"0.00037140","PERIOD":"93.855","LAUNCH_DATE":"2020-09-03"},{"REF_FRAME":"TEME","RCS_SIZE":"LARGE","MEAN_MOTION_DOT":"0.00002326","REV_AT_EPOCH":"9680","DECAY_DATE":null,"GP_ID":"204802547","ARG_OF_PERICENTER":"49.1079","FILE":"3469840","OBJECT_ID":"2020-062Y","INCLINATION":"53.0565","TIME_SYSTEM":"UTC","SEMIMAJOR_AXIS":"6925.332","MEAN_ANOMALY":"311.0057","APOAPSIS":"548.374","EPHEMERIS_TYPE":"0","TLE_LINE2":"2 46347  53.0565  50.3330 0001699  49.1079 311.0057 15.06405296 96807","COUNTRY_CODE":"US","SITE":"AFETR","OBJECT_TYPE":"PAYLOAD","PERIAPSIS":"546.021","ELEMENT_SET_NO":"999","EPOCH":"2022-05-28T20:58:52.214880","MEAN_ELEMENT_THEORY":"SGP4","BSTAR":"0.00017498000000","CENTER_NAME":"EARTH","NORAD_CAT_ID":"46347","CLASSIFICATION_TYPE":"U","MEAN_MOTION":"15.06405296","RA_OF_ASC_NODE":"50.3330","TLE_LINE1":"1 46347U 20062Y   22148.87421545  .00002326  00000-0  17498-3 0  9992","MEAN_MOTION_DDOT":"0.0000000000000","OBJECT_NAME":"STARLINK-1547","ECCENTRICITY":"0.00016990","PERIOD":"95.592","LAUNCH_DATE":"2020-09-03"},{"INCLINATION":"53.0554","TIME_SYSTEM":"UTC","OBJECT_ID":"2020-062Z","SEMIMAJOR_AXIS":"6925.314","MEAN_ANOMALY":"314.4760","RCS_SIZE":"LARGE","REF_FRAME":"TEME","REV_AT_EPOCH":"9659","MEAN_MOTION_DOT":"0.00002278","DECAY_DATE":null,"GP_ID":"204740499","ARG_OF_PERICENTER":"45.6371","FILE":"3469022","MEAN_MOTION":"15.06411327","ECCENTRICITY":"0.00017400","MEAN_MOTION_DDOT":"0.0000000000000","OBJECT_NAME":"STARLINK-1553","TLE_LINE1":"1 46348U 20062Z   22148.51989933  .00002278  00000-0  17170-3 0  9997","RA_OF_ASC_NODE":"76.9185","PERIOD":"95.591","LAUNCH_DATE":"2020-09-03","APOAPSIS":"548.384","EPHEMERIS_TYPE":"0","COUNTRY_CODE":"US","TLE_LINE2":"2 46348  53.0554  76.9185 0001740  45.6371 314.4760 15.06411327 96597","SITE":"AFETR","OBJECT_TYPE":"PAYLOAD","PERIAPSIS":"545.974","ELEMENT_SET_NO":"999","EPOCH":"2022-05-28T12:28:39.302112","BSTAR":"0.00017170000000","MEAN_ELEMENT_THEORY":"SGP4","NORAD_CAT_ID":"46348","CLASSIFICATION_TYPE":"U","CENTER_NAME":"EARTH"},{"REF_FRAME":"TEME","RCS_SIZE":"LARGE","MEAN_MOTION_DOT":"0.00001771","REV_AT_EPOCH":"9682","DECAY_DATE":null,"GP_ID":"204801551","ARG_OF_PERICENTER":"56.2058","FILE":"3469840","OBJECT_ID":"2020-062AA","TIME_SYSTEM":"UTC","INCLINATION":"53.0557","SEMIMAJOR_AXIS":"6925.336","MEAN_ANOMALY":"303.9104","EPHEMERIS_TYPE":"0","APOAPSIS":"548.468","TLE_LINE2":"2 46349  53.0557  50.1593 0001829  56.2058 303.9104 15.06404044 96825","COUNTRY_CODE":"US","SITE":"AFETR","OBJECT_TYPE":"PAYLOAD","PERIAPSIS":"545.935","EPOCH":"2022-05-28T21:57:15.119712","ELEMENT_SET_NO":"999","MEAN_ELEMENT_THEORY":"SGP4","BSTAR":"0.00013775000000","CENTER_NAME":"EARTH","NORAD_CAT_ID":"46349","CLASSIFICATION_TYPE":"U","MEAN_MOTION":"15.06404044","RA_OF_ASC_NODE":"50.1593","TLE_LINE1":"1 46349U 20062AA  22148.91475833  .00001771  00000-0  13775-3 0  9995","ECCENTRICITY":"0.00018290","MEAN_MOTION_DDOT":"0.0000000000000","OBJECT_NAME":"STARLINK-1575","PERIOD":"95.592","LAUNCH_DATE":"2020-09-03"},{"MEAN_MOTION":"15.06404884","ECCENTRICITY":"0.00019790","MEAN_MOTION_DDOT":"0.0000000000000","OBJECT_NAME":"STARLINK-1617","RA_OF_ASC_NODE":"95.3262","TLE_LINE1":"1 46350U 20062AB  22148.87928002  .00001994  00000-0  15272-3 0  9994","PERIOD":"95.592","LAUNCH_DATE":"2020-09-03","COUNTRY_CODE":"US","TLE_LINE2":"2 46350  53.0561  95.3262 0001979  48.5616 311.5542 15.06404884 96199","EPHEMERIS_TYPE":"0","APOAPSIS":"548.569","OBJECT_TYPE":"PAYLOAD","PERIAPSIS":"545.828","SITE":"AFETR","BSTAR":"0.00015272000000","MEAN_ELEMENT_THEORY":"SGP4","EPOCH":"2022-05-28T21:06:09.793728","ELEMENT_SET_NO":"999","CLASSIFICATION_TYPE":"U","NORAD_CAT_ID":"46350","CENTER_NAME":"EARTH","TIME_SYSTEM":"UTC","INCLINATION":"53.0561","OBJECT_ID":"2020-062AB","SEMIMAJOR_AXIS":"6925.334","MEAN_ANOMALY":"311.5542","REF_FRAME":"TEME","RCS_SIZE":"LARGE","DECAY_DATE":null,"REV_AT_EPOCH":"9619","MEAN_MOTION_DOT":"0.00001994","GP_ID":"204802803","FILE":"3469840","ARG_OF_PERICENTER":"48.5616"}];
